NORAD_CAT_ID,OBJECT_NAME,OBJECT_TYPE,EPOCH,MEAN_MOTION,ECCENTRICITY,INCLINATION,RA_OF_ASC_NODE,ARG_OF_PERICENTER,MEAN_ANOMALY,BSTAR,MEAN_MOTION_DOT,MEAN_MOTION_DDOT,TLE_LINE0,TLE_LINE1,TLE_LINE2,SEMIMAJOR_AXIS,PERIOD,APOGEE,PERIGEE,DECAYED
52127.0,STARLINK-3715,PAYLOAD,2023-09-24 14:19:30,15.08837541,0.0001355,53.2156,136.3286,89.5346,270.5801,2.4564e-05,1.03e-06,0.0,0 STARLINK-3715,1 52127U 22029AR  23267.59687550  .00000103  00000-0  24564-4 0  9996,2 52127  53.2156 136.3286 0001355  89.5346 270.5801 15.08837541 85490,6917.888,95.438,540.69,538.816,0.0
52127.0,STARLINK-3715,PAYLOAD,2023-09-24 19:05:39,15.08839104,0.000155,53.2166,135.4381,102.2929,257.8236,2.3952e-05,9.3e-07,0.0,0 STARLINK-3715,1 52127U 22029AR  23267.79559541  .00000093  00000-0  23952-4 0  9994,2 52127  53.2166 135.4381 0001550 102.2929 257.8236 15.08839104 85525,6917.883,95.438,540.82,538.676,0.0
52127.0,STARLINK-3715,PAYLOAD,2023-09-24 20:41:02,15.08841024,0.0001429,53.2155,135.1396,91.4026,268.713,4.9449e-05,4.99e-06,0.0,0 STARLINK-3715,1 52127U 22029AR  23267.86183468  .00000499  00000-0  49449-4 0  9992,2 52127  53.2155 135.1396 0001429  91.4026 268.7130 15.08841024 85537,6917.877,95.437,540.731,538.754,0.0
52127.0,STARLINK-3715,PAYLOAD,2023-09-25 07:48:44,15.08848925,0.0001303,53.215,133.0581,101.3338,258.78,0.00018084,2.592e-05,0.0,0 STARLINK-3715,1 52127U 22029AR  23268.32550951  .00002592  00000-0  18084-3 0  9995,2 52127  53.2150 133.0581 0001303 101.3338 258.7800 15.08848925 85601,6917.853,95.437,540.62,538.817,0.0
52127.0,STARLINK-3715,PAYLOAD,2023-09-25 18:56:26,15.08844224,0.0001299,53.2157,130.9763,98.6701,261.4438,6.8873e-05,8.09e-06,0.0,0 STARLINK-3715,1 52127U 22029AR  23268.78919127  .00000809  00000-0  68873-4 0  9990,2 52127  53.2157 130.9763 0001299  98.6701 261.4438 15.08844224 85675,6917.867,95.437,540.631,538.834,0.0
52127.0,STARLINK-3715,PAYLOAD,2023-09-25 20:31:49,15.08846851,0.0001304,53.2156,130.6791,99.8198,260.2941,0.00011039,1.47e-05,0.0,0 STARLINK-3715,1 52127U 22029AR  23268.85542990  .00001470  00000-0  11039-3 0  9994,2 52127  53.2156 130.6791 0001304  99.8198 260.2941 15.08846851 85687,6917.859,95.437,540.627,538.822,0.0
52127.0,STARLINK-3715,PAYLOAD,2023-09-26 20:22:37,15.08830264,0.0001406,53.2153,126.2184,77.2441,282.8708,-6.7317e-05,-1.359e-05,0.0,0 STARLINK-3715,1 52127U 22029AR  23269.84904562 -.00001359  00000-0 -67317-4 0  9990,2 52127  53.2153 126.2184 0001406  77.2441 282.8708 15.08830264 85834,6917.91,95.438,540.748,538.802,0.0
52127.0,STARLINK-3715,PAYLOAD,2023-09-26 23:33:23,15.08832093,0.0001434,53.2153,125.6227,106.4299,253.6851,-5.1289e-05,-1.104e-05,0.0,0 STARLINK-3715,1 52127U 22029AR  23269.98152372 -.00001104  00000-0 -51289-4 0  9998,2 52127  53.2153 125.6227 0001434 106.4299 253.6851 15.08832093 85851,6917.905,95.438,540.762,538.778,0.0
52127.0,STARLINK-3715,PAYLOAD,2023-09-27 07:30:19,15.08832928,0.0001454,53.2158,124.135,86.6851,273.4308,-2.193e-05,-6.37e-06,0.0,0 STARLINK-3715,1 52127U 22029AR  23270.31272613 -.00000637  00000-0 -21930-4 0  9998,2 52127  53.2158 124.1350 0001454  86.6851 273.4308 15.08832928 85902,6917.902,95.438,540.773,538.761,0.0
52127.0,STARLINK-3715,PAYLOAD,2023-09-27 23:24:11,15.08838302,0.0001458,53.2158,121.161,99.9285,260.1872,0.00023707,3.487e-05,0.0,0 STARLINK-3715,1 52127U 22029AR  23270.97512810  .00003487  00000-0  23707-3 0  9993,2 52127  53.2158 121.1610 0001458  99.9285 260.1872 15.08838302 86003,6917.886,95.438,540.759,538.742,0.0
52127.0,STARLINK-3715,PAYLOAD,2023-09-28 18:28:48,15.08843247,0.000147,53.2156,117.5925,91.488,268.6281,0.00024275,3.578e-05,0.0,0 STARLINK-3715,1 52127U 22029AR  23271.77000844  .00003578  00000-0  24275-3 0  9993,2 52127  53.2156 117.5925 0001470  91.4880 268.6281 15.08843247 86125,6917.87,95.437,540.752,538.719,0.0
52127.0,STARLINK-3715,PAYLOAD,2023-09-29 18:19:35,15.08853074,0.0001399,53.2155,113.1322,91.0397,269.0756,0.00029478,4.408e-05,0.0,0 STARLINK-3715,1 52127U 22029AR  23272.76360174  .00004408  00000-0  29478-3 0  9991,2 52127  53.2155 113.1322 0001399  91.0397 269.0756 15.08853074 86273,6917.84,95.437,540.673,538.738,0.0
52127.0,STARLINK-3715,PAYLOAD,2023-09-29 19:54:58,15.0885714,0.000136,53.2158,112.8343,95.3956,264.7191,0.0002671,3.967e-05,0.0,0 STARLINK-3715,1 52127U 22029AR  23272.82983885  .00003967  00000-0  26710-3 0  9993,2 52127  53.2158 112.8343 0001360  95.3956 264.7191 15.08857140 86285,6917.828,95.436,540.634,538.752,0.0
52127.0,STARLINK-3715,PAYLOAD,2023-09-30 18:10:22,15.08839906,0.0001331,53.2156,108.6727,87.761,272.3535,-2.2683e-06,-3.24e-06,0.0,0 STARLINK-3715,1 52127U 22029AR  23273.75720485 -.00000324  00000-0 -22683-5 0  9994,2 52127  53.2156 108.6727 0001331  87.7610 272.3535 15.08839906 86425,6917.881,95.438,540.666,538.825,0.0
52127.0,STARLINK-3715,PAYLOAD,2023-10-01 13:14:59,15.08845901,0.0001374,53.2148,105.1036,99.0371,261.0777,9.251e-05,1.185e-05,0.0,0 STARLINK-3715,1 52127U 22029AR  23274.55208063  .00001185  00000-0  92510-4 0  9995,2 52127  53.2148 105.1036 0001374  99.0371 261.0777 15.08845901 86546,6917.862,95.437,540.678,538.777,0.0
52127.0,STARLINK-3715,PAYLOAD,2023-10-01 19:36:32,15.08850439,0.0001345,53.215,103.9136,96.631,263.4835,0.00036034,5.453e-05,0.0,0 STARLINK-3715,1 52127U 22029AR  23274.81703975  .00005453  00000-0  36034-3 0  9996,2 52127  53.2150 103.9136 0001345  96.6310 263.4835 15.08850439 86587,6917.848,95.437,540.644,538.783,0.0
52127.0,STARLINK-3715,PAYLOAD,2023-10-02 11:30:23,15.08842277,0.0001613,53.2148,100.9413,95.8796,264.238,0.00019525,2.821e-05,0.0,0 STARLINK-3715,1 52127U 22029AR  23275.47944348  .00002821  00000-0  19525-3 0  9992,2 52127  53.2148 100.9413 0001613  95.8796 264.2380 15.08842277 86682,6917.873,95.437,540.854,538.623,0.0
52127.0,STARLINK-3715,PAYLOAD,2023-10-02 19:27:19,15.08843659,0.0001534,53.2154,99.4551,97.1462,262.9705,0.00019547,2.825e-05,0.0,0 STARLINK-3715,1 52127U 22029AR  23275.81064264  .00002825  00000-0  19547-3 0  9998,2 52127  53.2154  99.4551 0001534  97.1462 262.9705 15.08843659 86738,6917.869,95.437,540.795,538.673,0.0
52127.0,STARLINK-3715,PAYLOAD,2023-10-03 04:59:38,15.08842221,0.0001374,53.2155,97.6718,98.87,261.2448,0.00010753,1.424e-05,0.0,0 STARLINK-3715,1 52127U 22029AR  23276.20808266  .00001424  00000-0  10753-3 0  9994,2 52127  53.2155  97.6718 0001374  98.8700 261.2448 15.08842221 86795,6917.874,95.437,540.689,538.788,0.0
52127.0,STARLINK-3715,PAYLOAD,2023-10-03 19:18:06,15.08840418,0.0001328,53.2151,94.9941,92.8629,267.2515,4.5107e-05,4.3e-06,0.0,0 STARLINK-3715,1 52127U 22029AR  23276.80424476  .00000430  00000-0  45107-4 0  9995,2 52127  53.2151  94.9941 0001328  92.8629 267.2515 15.08840418 86889,6917.879,95.438,540.663,538.825,0.0
52127.0,STARLINK-3715,PAYLOAD,2023-10-03 22:28:52,15.08843869,0.0001332,53.2152,94.3989,93.6553,266.4591,8.9042e-05,1.13e-05,0.0,0 STARLINK-3715,1 52127U 22029AR  23276.93672294  .00001130  00000-0  89042-4 0  9996,2 52127  53.2152  94.3989 0001332  93.6553 266.4591 15.08843869 86907,6917.869,95.437,540.655,538.812,0.0
52127.0,STARLINK-3715,PAYLOAD,2023-10-04 19:08:53,15.08839507,0.0001323,53.2155,90.5329,93.2118,266.9026,6.6859e-05,7.76e-06,0.0,0 STARLINK-3715,1 52127U 22029AR  23277.79784621  .00000776  00000-0  66859-4 0  9995,2 52127  53.2155  90.5329 0001323  93.2118 266.9026 15.08839507 87036,6917.882,95.438,540.662,538.832,0.0
52127.0,STARLINK-3715,PAYLOAD,2023-10-05 11:02:45,15.088355,0.0001339,53.2157,87.5592,91.4499,268.6647,0.00012875,1.761e-05,0.0,0 STARLINK-3715,1 52127U 22029AR  23278.46025104  .00001761  00000-0  12875-3 0  9997,2 52127  53.2157  87.5592 0001339  91.4499 268.6647 15.08835500 87133,6917.894,95.438,540.685,538.833,0.0
52127.0,STARLINK-3715,PAYLOAD,2023-10-05 18:59:41,15.08839413,0.0001249,53.216,86.0727,93.8389,266.2746,0.00033907,5.112e-05,0.0,0 STARLINK-3715,1 52127U 22029AR  23278.79144927  .00005112  00000-0  33907-3 0  9991,2 52127  53.2160  86.0727 0001249  93.8389 266.2746 15.08839413 87181,6917.882,95.438,540.611,538.883,0.0
52127.0,STARLINK-3715,PAYLOAD,2023-10-06 10:53:32,15.08839418,0.0001134,53.2159,83.0993,101.8318,258.2802,9.8288e-05,1.277e-05,0.0,0 STARLINK-3715,1 52127U 22029AR  23279.45384936  .00001277  00000-0  98288-4 0  9993,2 52127  53.2159  83.0993 0001134 101.8318 258.2802 15.08839418 87286,6917.882,95.438,540.532,538.963,0.0
52127.0,STARLINK-3715,PAYLOAD,2023-10-06 17:15:05,15.08840883,0.0001174,53.2158,81.9102,96.7324,263.3801,0.00018794,2.705e-05,0.0,0 STARLINK-3715,1 52127U 22029AR  23279.71880938  .00002705  00000-0  18794-3 0  9995,2 52127  53.2158  81.9102 0001174  96.7324 263.3801 15.08840883 87326,6917.878,95.437,540.555,538.931,0.0
52127.0,STARLINK-3715,PAYLOAD,2023-10-07 13:55:05,15.08841466,0.0001176,53.2159,78.0442,96.0526,264.06,0.00013325,1.834e-05,0.0,0 STARLINK-3715,1 52127U 22029AR  23280.57993000  .00001834  00000-0  13325-3 0  9993,2 52127  53.2159  78.0442 0001176  96.0526 264.0600 15.08841466 87457,6917.876,95.437,540.554,538.927,0.0
52127.0,STARLINK-3715,PAYLOAD,2023-10-07 17:05:52,15.08847128,0.0001194,53.216,77.4492,86.604,273.5089,0.00015582,2.193e-05,0.0,0 STARLINK-3715,1 52127U 22029AR  23280.71240741  .00002193  00000-0  15582-3 0  9992,2 52127  53.2160  77.4492 0001194  86.6040 273.5089 15.08847128 87472,6917.859,95.437,540.55,538.898,0.0
52127.0,STARLINK-3715,PAYLOAD,2023-10-08 10:35:06,15.08841412,0.0001189,53.216,74.1776,91.5259,268.5869,7.0584e-05,8.36e-06,0.0,0 STARLINK-3715,1 52127U 22029AR  23281.44104996  .00000836  00000-0  70584-4 0  9990,2 52127  53.2160  74.1776 0001189  91.5259 268.5869 15.08841412 87584,6917.876,95.437,540.564,538.919,0.0
52127.0,STARLINK-3715,PAYLOAD,2023-10-08 13:45:52,15.08843429,0.0001181,53.2159,73.5832,91.8972,268.2155,0.00010701,1.416e-05,0.0,0 STARLINK-3715,1 52127U 22029AR  23281.57352870  .00001416  00000-0  10701-3 0  9999,2 52127  53.2159  73.5832 0001181  91.8972 268.2155 15.08843429 87603,6917.87,95.437,540.552,538.918,0.0
